PHISAT 2                
1 60470U 24149C   26068.78834181  .00008925  00000+0  31421-3 0  9996
2 60470  97.3806 148.6498 0001175 168.6230 191.5037 15.29548631 86792
STARLINK-36553          
1 67506U 26012P   26068.08572399  .00035703  00000+0  13011-2 0  9995
2 67506  43.0032 317.4469 0001857 254.6779 105.3867 15.27569407  7679
